NORAD_CAT_ID,OBJECT_NAME,OBJECT_TYPE,EPOCH,MEAN_MOTION,ECCENTRICITY,INCLINATION,RA_OF_ASC_NODE,ARG_OF_PERICENTER,MEAN_ANOMALY,BSTAR,MEAN_MOTION_DOT,MEAN_MOTION_DDOT,TLE_LINE0,TLE_LINE1,TLE_LINE2,SEMIMAJOR_AXIS,PERIOD,APOGEE,PERIGEE,DECAYED
55411.0,STARLINK-5605,PAYLOAD,2023-10-05 20:54:29,14.98326547,0.0002842,69.9994,138.1163,262.5126,97.571,-4.6318e-05,-6.46e-06,0.0,0 STARLINK-5605,1 55411U 23014W   23278.87117922 -.00000646  00000-0 -46318-4 0  9999,2 55411  69.9994 138.1163 0002842 262.5126  97.5710 14.98326547 39366,6950.204,96.107,574.044,570.093,0.0
55411.0,STARLINK-5605,PAYLOAD,2023-10-06 00:06:45,14.98328992,0.0002896,69.999,137.7782,264.9577,95.1251,-1.6517e-05,-2.9e-06,0.0,0 STARLINK-5605,1 55411U 23014W   23279.00469692 -.00000290  00000-0 -16517-4 0  9992,2 55411  69.9990 137.7782 0002896 264.9577  95.1251 14.98328992 38447,6950.196,96.107,574.074,570.048,0.0
55411.0,STARLINK-5605,PAYLOAD,2023-10-06 08:07:26,14.98327753,0.0002751,69.9993,136.9367,272.2199,87.8645,-5.0981e-05,-7.01e-06,0.0,0 STARLINK-5605,1 55411U 23014W   23279.33849986 -.00000701  00000-0 -50981-4 0  9996,2 55411  69.9993 136.9367 0002751 272.2199  87.8645 14.98327753 39431,6950.2,96.107,573.977,570.153,0.0
55411.0,STARLINK-5605,PAYLOAD,2023-10-06 20:56:30,14.98329289,0.000317,69.9991,135.5904,271.5785,88.5011,-6.0883e-05,-8.19e-06,0.0,0 STARLINK-5605,1 55411U 23014W   23279.87257898 -.00000819  00000-0 -60883-4 0  9992,2 55411  69.9991 135.5904 0003170 271.5785  88.5011 14.98329289 39510,6950.195,96.107,574.263,569.857,0.0
55411.0,STARLINK-5605,PAYLOAD,2023-10-07 00:08:46,14.98330741,0.000308,69.9992,135.254,269.6984,90.3822,-4.3687e-05,-6.14e-06,0.0,0 STARLINK-5605,1 55411U 23014W   23280.00609766 -.00000614  00000-0 -43687-4 0  9990,2 55411  69.9992 135.2540 0003080 269.6984  90.3822 14.98330741 38596,6950.191,96.107,574.196,569.915,0.0
55411.0,STARLINK-5605,PAYLOAD,2023-10-07 20:58:31,14.98332896,0.0003139,69.999,133.0656,270.2978,89.7822,9.1047e-05,9.94e-06,0.0,0 STARLINK-5605,1 55411U 23014W   23280.87397295  .00000994  00000-0  91047-4 0  9998,2 55411  69.9990 133.0656 0003139 270.2978  89.7822 14.98332896 39668,6950.184,96.107,574.231,569.867,0.0
55411.0,STARLINK-5605,PAYLOAD,2023-10-08 00:10:47,14.98334609,0.0003124,69.999,132.7289,270.3368,89.7433,0.00010313,1.138e-05,0.0,0 STARLINK-5605,1 55411U 23014W   23281.00749133  .00001138  00000-0  10313-3 0  9993,2 55411  69.9990 132.7289 0003124 270.3368  89.7433 14.98334609 38744,6950.179,96.107,574.215,569.872,0.0
55411.0,STARLINK-5605,PAYLOAD,2023-10-08 08:11:27,14.98332029,0.0003079,69.9992,131.887,270.6654,89.4152,8.7098e-05,9.46e-06,0.0,0 STARLINK-5605,1 55411U 23014W   23281.34129296  .00000946  00000-0  87098-4 0  9993,2 55411  69.9992 131.8870 0003079 270.6654  89.4152 14.98332029 39731,6950.187,96.107,574.192,569.912,0.0
55411.0,STARLINK-5605,PAYLOAD,2023-10-08 17:48:16,14.98329858,0.0003072,69.9992,130.8773,270.4493,89.6314,8.8152e-05,9.59e-06,0.0,0 STARLINK-5605,1 55411U 23014W   23281.74185423  .00000959  00000-0  88152-4 0  9997,2 55411  69.9992 130.8773 0003072 270.4493  89.6314 14.98329858 38854,6950.193,96.107,574.193,569.923,0.0
55411.0,STARLINK-5605,PAYLOAD,2023-10-08 21:00:31,14.98335146,0.0003057,69.9991,130.5409,270.27,89.8109,0.00010277,1.134e-05,0.0,0 STARLINK-5605,1 55411U 23014W   23281.87537027  .00001134  00000-0  10277-3 0  9990,2 55411  69.9991 130.5409 0003057 270.2700  89.8109 14.98335146 39816,6950.177,96.107,574.167,569.917,0.0
55411.0,STARLINK-5605,PAYLOAD,2023-10-09 00:12:47,14.98336443,0.0003042,69.9992,130.2042,270.2431,89.8379,0.00011321,1.258e-05,0.0,0 STARLINK-5605,1 55411U 23014W   23282.00888870  .00001258  00000-0  11321-3 0  9999,2 55411  69.9992 130.2042 0003042 270.2431  89.8379 14.98336443 38899,6950.173,96.107,574.152,569.924,0.0
55411.0,STARLINK-5605,PAYLOAD,2023-10-09 13:01:53,14.98337614,0.0002752,69.9997,128.8582,272.9419,87.1425,-0.00018602,-2.312e-05,0.0,0 STARLINK-5605,1 55411U 23014W   23282.54297715 -.00002312  00000-0 -18602-3 0  9993,2 55411  69.9997 128.8582 0002752 272.9419  87.1425 14.98337614 39916,6950.169,96.107,573.947,570.122,0.0
55411.0,STARLINK-5605,PAYLOAD,2023-10-09 17:50:17,14.98327835,0.0002846,69.9994,128.3528,273.3831,86.7003,-5.8292e-05,-7.88e-06,0.0,0 STARLINK-5605,1 55411U 23014W   23282.74325878 -.00000788  00000-0 -58292-4 0  9992,2 55411  69.9994 128.3528 0002846 273.3831  86.7003 14.98327835 39006,6950.2,96.107,574.043,570.087,0.0
55411.0,STARLINK-5605,PAYLOAD,2023-10-09 21:02:33,14.9832851,0.000285,69.9994,128.0168,268.2657,91.8176,-7.4676e-05,-9.84e-06,0.0,0 STARLINK-5605,1 55411U 23014W   23282.87677834 -.00000984  00000-0 -74676-4 0  9990,2 55411  69.9994 128.0168 0002850 268.2657  91.8176 14.98328510 39961,6950.197,96.107,574.043,570.082,0.0
55411.0,STARLINK-5605,PAYLOAD,2023-10-10 06:39:21,14.98329513,0.0002872,69.9992,127.0061,270.9731,89.1099,-2.2557e-05,-3.62e-06,0.0,0 STARLINK-5605,1 55411U 23014W   23283.27733660 -.00000362  00000-0 -22557-4 0  9996,2 55411  69.9992 127.0061 0002872 270.9731  89.1099 14.98329513 40024,6950.194,96.107,574.055,570.063,0.0
55411.0,STARLINK-5605,PAYLOAD,2023-10-10 19:28:26,14.98332919,0.0003009,69.9988,125.6595,268.5898,91.4916,-8.7122e-06,-1.97e-06,0.0,0 STARLINK-5605,1 55411U 23014W   23283.81141313 -.00000197  00000-0 -87122-5 0  9990,2 55411  69.9988 125.6595 0003009 268.5898  91.4916 14.98332919 39166,6950.184,96.107,574.14,569.958,0.0
55411.0,STARLINK-5605,PAYLOAD,2023-10-10 21:04:34,14.98333551,0.0003055,69.9991,125.4911,271.0481,89.0328,1.0041e-05,2.7e-07,0.0,0 STARLINK-5605,1 55411U 23014W   23283.87817209  .00000027  00000-0  10041-4 0  9995,2 55411  69.9991 125.4911 0003055 271.0481  89.0328 14.98333551 40118,6950.182,96.107,574.17,569.924,0.0
55411.0,STARLINK-5605,PAYLOAD,2023-10-11 13:05:55,14.98324843,0.000297,69.9988,123.8079,268.9565,91.1254,2.2172e-05,1.72e-06,0.0,0 STARLINK-5605,1 55411U 23014W   23284.54577754  .00000172  00000-0  22172-4 0  9997,2 55411  69.9988 123.8079 0002970 268.9565  91.1254 14.98324843 40211,6950.209,96.107,574.138,570.01,0.0
55411.0,STARLINK-5605,PAYLOAD,2023-10-11 17:54:19,14.98326009,0.0002983,69.999,123.3028,267.9052,92.1765,9.2999e-06,1.8e-07,0.0,0 STARLINK-5605,1 55411U 23014W   23284.74605762  .00000018  00000-0  92999-5 0  9994,2 55411  69.9990 123.3028 0002983 267.9052  92.1765 14.98326009 39309,6950.205,96.107,574.143,569.997,0.0
55411.0,STARLINK-5605,PAYLOAD,2023-10-12 13:07:55,14.983335,0.0003032,69.9992,121.2832,269.2133,90.8679,6.33e-05,6.62e-06,0.0,0 STARLINK-5605,1 55411U 23014W   23285.54717250  .00000662  00000-0  63300-4 0  9997,2 55411  69.9992 121.2832 0003032 269.2133  90.8679 14.98333500 40363,6950.182,96.107,574.154,569.94,0.0
55411.0,STARLINK-5605,PAYLOAD,2023-10-12 19:32:27,14.98335043,0.000306,69.9993,120.6096,268.9207,91.1602,4.514e-05,4.46e-06,0.0,0 STARLINK-5605,1 55411U 23014W   23285.81421134  .00000446  00000-0  45140-4 0  9992,2 55411  69.9993 120.6096 0003060 268.9207  91.1602 14.98335043 39461,6950.177,96.107,574.169,569.916,0.0
55411.0,STARLINK-5605,PAYLOAD,2023-10-12 22:44:43,14.98335446,0.0003058,69.9993,120.2729,268.9406,91.1403,4.8656e-05,4.88e-06,0.0,0 STARLINK-5605,1 55411U 23014W   23285.94773060  .00000488  00000-0  48656-4 0  9995,2 55411  69.9993 120.2729 0003058 268.9406  91.1403 14.98335446 40422,6950.176,96.107,574.166,569.916,0.0
55411.0,STARLINK-5605,PAYLOAD,2023-10-13 14:46:04,14.98329586,0.0003103,69.9992,118.5893,268.994,91.0863,7.3609e-05,7.85e-06,0.0,0 STARLINK-5605,1 55411U 23014W   23286.61533240  .00000785  00000-0  73609-4 0  9990,2 55411  69.9992 118.5893 0003103 268.9940  91.0863 14.98329586 40525,6950.194,96.107,574.216,569.903,0.0
55411.0,STARLINK-5605,PAYLOAD,2023-10-13 21:10:36,14.98332486,0.0003117,69.9992,117.9162,269.4257,90.6545,7.1921e-05,7.65e-06,0.0,0 STARLINK-5605,1 55411U 23014W   23286.88237046  .00000765  00000-0  71921-4 0  9997,2 55411  69.9992 117.9162 0003117 269.4257  90.6545 14.98332486 39623,6950.185,96.107,574.217,569.884,0.0
55411.0,STARLINK-5605,PAYLOAD,2023-10-14 13:11:57,14.98333744,0.0003015,69.9994,116.2327,269.8222,90.2591,-2.8166e-05,-4.29e-06,0.0,0 STARLINK-5605,1 55411U 23014W   23287.54997160 -.00000429  00000-0 -28166-4 0  9993,2 55411  69.9994 116.2327 0003015 269.8222  90.2591 14.98333744 40664,6950.181,96.107,574.142,569.951,0.0
55411.0,STARLINK-5605,PAYLOAD,2023-10-14 21:12:37,14.98333349,0.0003046,69.9992,115.3911,269.0853,90.9957,-2.1915e-05,-3.55e-06,0.0,0 STARLINK-5605,1 55411U 23014W   23287.88377079 -.00000355  00000-0 -21915-4 0  9994,2 55411  69.9992 115.3911 0003046 269.0853  90.9957 14.98333349 40717,6950.183,96.107,574.165,569.931,0.0
55411.0,STARLINK-5605,PAYLOAD,2023-10-14 22:48:45,14.9833338,0.0003053,69.9992,115.2228,269.3273,90.7536,-2.117e-05,-3.46e-06,0.0,0 STARLINK-5605,1 55411U 23014W   23287.95053059 -.00000346  00000-0 -21170-4 0  9994,2 55411  69.9992 115.2228 0003053 269.3273  90.7536 14.98333380 39785,6950.182,96.107,574.169,569.926,0.0
55411.0,STARLINK-5605,PAYLOAD,2023-10-15 13:13:58,14.98331481,0.0003012,69.9992,113.7079,270.2981,89.7833,-8.0025e-07,-1.03e-06,0.0,0 STARLINK-5605,1 55411U 23014W   23288.55137039 -.00000103  00000-0 -80025-6 0  9999,2 55411  69.9992 113.7079 0003012 270.2981  89.7833 14.98331481 40818,6950.188,96.107,574.147,569.96,0.0
55411.0,STARLINK-5605,PAYLOAD,2023-10-15 21:14:38,14.98331851,0.0003003,69.9993,112.8663,270.3961,89.6854,9.7748e-06,2.4e-07,0.0,0 STARLINK-5605,1 55411U 23014W   23288.88516946  .00000024  00000-0  97748-5 0  9992,2 55411  69.9993 112.8663 0003003 270.3961  89.6854 14.98331851 40865,6950.187,96.107,574.139,569.965,0.0
55411.0,STARLINK-5605,PAYLOAD,2023-10-15 22:50:46,14.98332043,0.0003001,69.9993,112.6979,270.4454,89.6361,1.171e-05,4.7e-07,0.0,0 STARLINK-5605,1 55411U 23014W   23288.95192920  .00000047  00000-0  11710-4 0  9991,2 55411  69.9993 112.6979 0003001 270.4454  89.6361 14.98332043 39932,6950.187,96.107,574.137,569.966,0.0
